[{"OBJECT_NAME":"JILIN-1 07","OBJECT_ID":"2018-008E","EPOCH":"2026-03-09T22:24:26.445888","MEAN_MOTION":15.32987507,"ECCENTRICITY":0.00101791,"INCLINATION":97.1876,"RA_OF_ASC_NODE":91.5817,"ARG_OF_PERICENTER":62.7832,"MEAN_ANOMALY":297.4447,"EPHEMERIS_TYPE":0,"CLASSIFICATION_TYPE":"U","NORAD_CAT_ID":43159,"ELEMENT_SET_NO":999,"REV_AT_EPOCH":44978,"BSTAR":0.00036439521,"MEAN_MOTION_DOT":0.00011559,"MEAN_MOTION_DDOT":0},{"OBJECT_NAME":"STARLINK-35395","OBJECT_ID":"2025-232K","EPOCH":"2026-03-09T11:20:02.871744","MEAN_MOTION":15.30200354,"ECCENTRICITY":0.00013586,"INCLINATION":53.159,"RA_OF_ASC_NODE":104.8238,"ARG_OF_PERICENTER":82.1646,"MEAN_ANOMALY":277.9509,"EPHEMERIS_TYPE":0,"CLASSIFICATION_TYPE":"U","NORAD_CAT_ID":66014,"ELEMENT_SET_NO":999,"REV_AT_EPOCH":2340,"BSTAR":0.0011211953,"MEAN_MOTION_DOT":0.00032995,"MEAN_MOTION_DDOT":0}]
